[{"OBJECT_NAME":"ONEWEB-0058","OBJECT_ID":"2020-008AG","EPOCH":"2026-02-24T23:09:48.614400","MEAN_MOTION":13.10374673,"ECCENTRICITY":0.0001916,"INCLINATION":87.876,"RA_OF_ASC_NODE":58.6318,"ARG_OF_PERICENTER":96.8462,"MEAN_ANOMALY":263.2883,"EPHEMERIS_TYPE":0,"CLASSIFICATION_TYPE":"U","NORAD_CAT_ID":45161,"ELEMENT_SET_NO":999,"REV_AT_EPOCH":29372,"BSTAR":-0.00095813,"MEAN_MOTION_DOT":-3.22e-6,"MEAN_MOTION_DDOT":0},{"OBJECT_NAME":"ONEWEB-0059","OBJECT_ID":"2020-008AH","EPOCH":"2026-02-24T17:34:57.562752","MEAN_MOTION":13.10374466,"ECCENTRICITY":0.00018001,"INCLINATION":87.8755,"RA_OF_ASC_NODE":58.6784,"ARG_OF_PERICENTER":91.9864,"MEAN_ANOMALY":268.147,"EPHEMERIS_TYPE":0,"CLASSIFICATION_TYPE":"U","NORAD_CAT_ID":45162,"ELEMENT_SET_NO":999,"REV_AT_EPOCH":29359,"BSTAR":-0.0011629343,"MEAN_MOTION_DOT":-3.93e-6,"MEAN_MOTION_DDOT":0},{"OBJECT_NAME":"ONEWEB-0062","OBJECT_ID":"2020-008AJ","EPOCH":"2026-02-25T01:31:51.717792","MEAN_MOTION":13.10373864,"ECCENTRICITY":0.0002042,"INCLINATION":87.8765,"RA_OF_ASC_NODE":58.5936,"ARG_OF_PERICENTER":101.3364,"MEAN_ANOMALY":258.7993,"EPHEMERIS_TYPE":0,"CLASSIFICATION_TYPE":"U","NORAD_CAT_ID":45163,"ELEMENT_SET_NO":999,"REV_AT_EPOCH":29350,"BSTAR":0.0014539,"MEAN_MOTION_DOT":5.2e-6,"MEAN_MOTION_DDOT":0},{"OBJECT_NAME":"ONEWEB-0065","OBJECT_ID":"2020-008AK","EPOCH":"2026-02-24T22:35:56.965056","MEAN_MOTION":13.10370077,"ECCENTRICITY":0.0001913,"INCLINATION":87.8752,"RA_OF_ASC_NODE":58.628,"ARG_OF_PERICENTER":77.9436,"MEAN_ANOMALY":282.1905,"EPHEMERIS_TYPE":0,"CLASSIFICATION_TYPE":"U","NORAD_CAT_ID":45164,"ELEMENT_SET_NO":999,"REV_AT_EPOCH":29318,"BSTAR":-0.0010047,"MEAN_MOTION_DOT":-3.38e-6,"MEAN_MOTION_DDOT":0},{"OBJECT_NAME":"ONEWEB-0066","OBJECT_ID":"2020-020A","EPOCH":"2026-02-24T21:56:21.689088","MEAN_MOTION":13.1141659,"ECCENTRICITY":0.0001699,"INCLINATION":87.8846,"RA_OF_ASC_NODE":43.3944,"ARG_OF_PERICENTER":87.7208,"MEAN_ANOMALY":272.4114,"EPHEMERIS_TYPE":0,"CLASSIFICATION_TYPE":"U","NORAD_CAT_ID":45424,"ELEMENT_SET_NO":999,"REV_AT_EPOCH":28796,"BSTAR":-0.0015008,"MEAN_MOTION_DOT":-5.19e-6,"MEAN_MOTION_DDOT":0},{"OBJECT_NAME":"ONEWEB-0067","OBJECT_ID":"2020-020B","EPOCH":"2026-02-24T17:20:41.927136","MEAN_MOTION":13.1141577,"ECCENTRICITY":0.00017827,"INCLINATION":87.8854,"RA_OF_ASC_NODE":43.3407,"ARG_OF_PERICENTER":81.3891,"MEAN_ANOMALY":278.7439,"EPHEMERIS_TYPE":0,"CLASSIFICATION_TYPE":"U","NORAD_CAT_ID":45425,"ELEMENT_SET_NO":999,"REV_AT_EPOCH":28799,"BSTAR":0.0010529657,"MEAN_MOTION_DOT":3.86e-6,"MEAN_MOTION_DDOT":0},{"OBJECT_NAME":"ONEWEB-0080","OBJECT_ID":"2020-020C","EPOCH":"2026-02-24T23:03:30.883968","MEAN_MOTION":13.11417333,"ECCENTRICITY":0.0001955,"INCLINATION":87.8842,"RA_OF_ASC_NODE":43.383,"ARG_OF_PERICENTER":95.675,"MEAN_ANOMALY":264.4601,"EPHEMERIS_TYPE":0,"CLASSIFICATION_TYPE":"U","NORAD_CAT_ID":45426,"ELEMENT_SET_NO":999,"REV_AT_EPOCH":28799,"BSTAR":0.0010894,"MEAN_MOTION_DOT":3.99e-6,"MEAN_MOTION_DDOT":0},{"OBJECT_NAME":"ONEWEB-0090","OBJECT_ID":"2020-020D","EPOCH":"2026-02-24T21:41:54.435264","MEAN_MOTION":13.1141421,"ECCENTRICITY":0.0001871,"INCLINATION":87.8841,"RA_OF_ASC_NODE":43.3952,"ARG_OF_PERICENTER":87.8212,"MEAN_ANOMALY":272.313,"EPHEMERIS_TYPE":0,"CLASSIFICATION_TYPE":"U","NORAD_CAT_ID":45427,"ELEMENT_SET_NO":999,"REV_AT_EPOCH":28795,"BSTAR":-0.0011243,"MEAN_MOTION_DOT":-3.86e-6,"MEAN_MOTION_DDOT":0},{"OBJECT_NAME":"ONEWEB-0061","OBJECT_ID":"2020-020E","EPOCH":"2026-02-24T22:27:56.112768","MEAN_MOTION":13.11418494,"ECCENTRICITY":0.0001839,"INCLINATION":87.8846,"RA_OF_ASC_NODE":43.3743,"ARG_OF_PERICENTER":86.6819,"MEAN_ANOMALY":273.452,"EPHEMERIS_TYPE":0,"CLASSIFICATION_TYPE":"U","NORAD_CAT_ID":45428,"ELEMENT_SET_NO":999,"REV_AT_EPOCH":28791,"BSTAR":0.00080956,"MEAN_MOTION_DOT":3.0e-6,"MEAN_MOTION_DDOT":0},{"OBJECT_NAME":"ONEWEB-0081","OBJECT_ID":"2020-020F","EPOCH":"2026-02-24T22:01:13.780704","MEAN_MOTION":13.1141585,"ECCENTRICITY":0.0001649,"INCLINATION":87.8847,"RA_OF_ASC_NODE":43.3933,"ARG_OF_PERICENTER":83.2674,"MEAN_ANOMALY":276.8641,"EPHEMERIS_TYPE":0,"CLASSIFICATION_TYPE":"U","NORAD_CAT_ID":45429,"ELEMENT_SET_NO":999,"REV_AT_EPOCH":28802,"BSTAR":-0.0012146,"MEAN_MOTION_DOT":-4.18e-6,"MEAN_MOTION_DDOT":0},{"OBJECT_NAME":"ONEWEB-0069","OBJECT_ID":"2020-020G","EPOCH":"2026-02-24T16:15:46.973664","MEAN_MOTION":13.11416213,"ECCENTRICITY":0.00017713,"INCLINATION":87.8844,"RA_OF_ASC_NODE":43.4364,"ARG_OF_PERICENTER":84.805,"MEAN_ANOMALY":275.3281,"EPHEMERIS_TYPE":0,"CLASSIFICATION_TYPE":"U","NORAD_CAT_ID":45430,"ELEMENT_SET_NO":999,"REV_AT_EPOCH":28792,"BSTAR":-0.0012358829,"MEAN_MOTION_DOT":-4.25e-6,"MEAN_MOTION_DDOT":0},{"OBJECT_NAME":"ONEWEB-0031","OBJECT_ID":"2020-020H","EPOCH":"2026-02-24T11:55:46.578432","MEAN_MOTION":13.11414989,"ECCENTRICITY":0.00020138,"INCLINATION":87.8836,"RA_OF_ASC_NODE":43.4916,"ARG_OF_PERICENTER":92.0438,"MEAN_ANOMALY":268.092,"EPHEMERIS_TYPE":0,"CLASSIFICATION_TYPE":"U","NORAD_CAT_ID":45431,"ELEMENT_SET_NO":999,"REV_AT_EPOCH":28788,"BSTAR":0.00093732594,"MEAN_MOTION_DOT":3.45e-6,"MEAN_MOTION_DDOT":0},{"OBJECT_NAME":"ONEWEB-0027","OBJECT_ID":"2020-020J","EPOCH":"2026-02-25T03:33:19.759104","MEAN_MOTION":13.17646711,"ECCENTRICITY":0.0002252,"INCLINATION":87.9135,"RA_OF_ASC_NODE":28.0921,"ARG_OF_PERICENTER":86.1322,"MEAN_ANOMALY":274.0067,"EPHEMERIS_TYPE":0,"CLASSIFICATION_TYPE":"U","NORAD_CAT_ID":45432,"ELEMENT_SET_NO":999,"REV_AT_EPOCH":29160,"BSTAR":0.0001584,"MEAN_MOTION_DOT":7.4e-7,"MEAN_MOTION_DDOT":0},{"OBJECT_NAME":"ONEWEB-0064","OBJECT_ID":"2020-020K","EPOCH":"2026-02-24T22:52:32.307744","MEAN_MOTION":13.11415908,"ECCENTRICITY":0.0001999,"INCLINATION":87.8833,"RA_OF_ASC_NODE":43.3906,"ARG_OF_PERICENTER":88.2097,"MEAN_ANOMALY":271.9259,"EPHEMERIS_TYPE":0,"CLASSIFICATION_TYPE":"U","NORAD_CAT_ID":45433,"ELEMENT_SET_NO":999,"REV_AT_EPOCH":28797,"BSTAR":0.0010246,"MEAN_MOTION_DOT":3.76e-6,"MEAN_MOTION_DDOT":0},{"OBJECT_NAME":"ONEWEB-0018","OBJECT_ID":"2020-020L","EPOCH":"2026-02-24T21:49:02.523936","MEAN_MOTION":13.1141591,"ECCENTRICITY":0.000174,"INCLINATION":87.8845,"RA_OF_ASC_NODE":43.3953,"ARG_OF_PERICENTER":90.1007,"MEAN_ANOMALY":270.032,"EPHEMERIS_TYPE":0,"CLASSIFICATION_TYPE":"U","NORAD_CAT_ID":45434,"ELEMENT_SET_NO":999,"REV_AT_EPOCH":28791,"BSTAR":-0.0013306,"MEAN_MOTION_DOT":-4.59e-6,"MEAN_MOTION_DDOT":0},{"OBJECT_NAME":"ONEWEB-0083","OBJECT_ID":"2020-020M","EPOCH":"2026-02-24T21:35:36.696192","MEAN_MOTION":13.11413918,"ECCENTRICITY":0.000188,"INCLINATION":87.8843,"RA_OF_ASC_NODE":43.3846,"ARG_OF_PERICENTER":88.5154,"MEAN_ANOMALY":271.6189,"EPHEMERIS_TYPE":0,"CLASSIFICATION_TYPE":"U","NORAD_CAT_ID":45435,"ELEMENT_SET_NO":999,"REV_AT_EPOCH":28795,"BSTAR":-0.00082515,"MEAN_MOTION_DOT":-2.8e-6,"MEAN_MOTION_DDOT":0},{"OBJECT_NAME":"ONEWEB-0095","OBJECT_ID":"2020-020N","EPOCH":"2026-02-24T23:12:15.932448","MEAN_MOTION":13.11415419,"ECCENTRICITY":0.0002498,"INCLINATION":87.8843,"RA_OF_ASC_NODE":43.3804,"ARG_OF_PERICENTER":74.5634,"MEAN_ANOMALY":285.577,"EPHEMERIS_TYPE":0,"CLASSIFICATION_TYPE":"U","NORAD_CAT_ID":45436,"ELEMENT_SET_NO":999,"REV_AT_EPOCH":28796,"BSTAR":0.00015387,"MEAN_MOTION_DOT":6.7e-7,"MEAN_MOTION_DDOT":0}]
