ONEWEB-0058             
1 45161U 20008AG  26055.96514600 -.00000322  00000+0 -95813-3 0  9993
2 45161  87.8760  58.6318 0001916  96.8462 263.2883 13.10374673293728
ONEWEB-0059             
1 45162U 20008AH  26055.73261068 -.00000393  00000+0 -11629-2 0  9996
2 45162  87.8755  58.6784 0001800  91.9864 268.1470 13.10374466293595
ONEWEB-0062             
1 45163U 20008AJ  26056.06379303  .00000520  00000+0  14539-2 0  9999
2 45163  87.8765  58.5936 0002042 101.3364 258.7993 13.10373864293502
ONEWEB-0065             
1 45164U 20008AK  26055.94163154 -.00000338  00000+0 -10047-2 0  9990
2 45164  87.8752  58.6280 0001913  77.9436 282.1905 13.10370077293187
ONEWEB-0066             
1 45424U 20020A   26055.91413992 -.00000519  00000+0 -15008-2 0  9991
2 45424  87.8846  43.3944 0001699  87.7208 272.4114 13.11416590287960
ONEWEB-0067             
1 45425U 20020B   26055.72270749  .00000386  00000+0  10530-2 0  9997
2 45425  87.8854  43.3407 0001782  81.3891 278.7439 13.11415770287996
ONEWEB-0080             
1 45426U 20020C   26055.96077412  .00000399  00000+0  10894-2 0  9993
2 45426  87.8842  43.3830 0001955  95.6750 264.4601 13.11417333287998
ONEWEB-0090             
1 45427U 20020D   26055.90410226 -.00000386  00000+0 -11243-2 0  9999
2 45427  87.8841  43.3952 0001871  87.8212 272.3130 13.11414210287958
ONEWEB-0061             
1 45428U 20020E   26055.93606612  .00000300  00000+0  80956-3 0  9991
2 45428  87.8846  43.3743 0001839  86.6819 273.4520 13.11418494287915
ONEWEB-0081             
1 45429U 20020F   26055.91752061 -.00000418  00000+0 -12146-2 0  9997
2 45429  87.8847  43.3933 0001649  83.2674 276.8641 13.11415850288026
ONEWEB-0069             
1 45430U 20020G   26055.67762701 -.00000425  00000+0 -12359-2 0  9998
2 45430  87.8844  43.4364 0001771  84.8050 275.3281 13.11416213287921
ONEWEB-0031             
1 45431U 20020H   26055.49706688  .00000345  00000+0  93733-3 0  9996
2 45431  87.8836  43.4916 0002013  92.0438 268.0920 13.11414989287889
ONEWEB-0027             
1 45432U 20020J   26056.14814536  .00000074  00000+0  15840-3 0  9994
2 45432  87.9135  28.0921 0002252  86.1322 274.0067 13.17646711291609
ONEWEB-0064             
1 45433U 20020K   26055.95315171  .00000376  00000+0  10246-2 0  9993
2 45433  87.8833  43.3906 0001999  88.2097 271.9259 13.11415908287976
ONEWEB-0018             
1 45434U 20020L   26055.90905699 -.00000459  00000+0 -13306-2 0  9993
2 45434  87.8845  43.3953 0001740  90.1007 270.0320 13.11415910287915
ONEWEB-0083             
1 45435U 20020M   26055.89973028 -.00000280  00000+0 -82515-3 0  9994
2 45435  87.8843  43.3846 0001880  88.5154 271.6189 13.11413918287954
ONEWEB-0095             
1 45436U 20020N   26055.96685107  .00000067  00000+0  15387-3 0  9995
2 45436  87.8843  43.3804 0002498  74.5634 285.5770 13.11415419287962
